OBJECT_NAME,OBJECT_ID,EPOCH,MEAN_MOTION,ECCENTRICITY,INCLINATION,RA_OF_ASC_NODE,ARG_OF_PERICENTER,MEAN_ANOMALY,EPHEMERIS_TYPE,CLASSIFICATION_TYPE,NORAD_CAT_ID,ELEMENT_SET_NO,REV_AT_EPOCH,BSTAR,MEAN_MOTION_DOT,MEAN_MOTION_DDOT
KUIPER-00076,2025-151H,2026-06-08T12:40:41.530080,14.79927418,.00004123,51.9006,251.4080,100.2909,259.8100,0,U,64823,999,4886,.19462106E-3,.1263E-4,0
KUIPER-00077,2025-151J,2026-06-08T12:32:52.160352,14.79962902,.00005059,51.9008,256.4474,102.2487,257.8532,0,U,64824,999,4879,.5654432E-3,.4095E-4,0
KUIPER-00078,2025-151K,2026-06-09T02:23:20.902272,14.79953621,.0000908,51.9018,251.3745,102.4207,257.6857,0,U,64825,999,4891,.78282E-3,.5754E-4,0
KUIPER-00079,2025-151L,2026-06-08T23:49:44.209056,14.79932119,.0000531,51.8988,256.8153,95.7217,264.3806,0,U,64826,999,5002,.3125E-3,.2162E-4,0
KUIPER-00080,2025-151M,2026-06-08T13:17:39.585696,14.79923453,.00005859,51.8998,258.7661,104.7948,255.3080,0,U,64827,999,4876,.20161974E-3,.1316E-4,0
KUIPER-00082,2025-151N,2026-06-08T12:48:26.241120,14.79925582,.00005935,51.8999,246.4011,105.7175,254.3853,0,U,64828,999,4893,.29773404E-3,.2049E-4,0
KUIPER-00083,2025-151P,2026-06-08T12:36:48.389184,14.79933111,.00005576,51.9014,253.9226,106.4031,253.6993,0,U,64829,999,5001,.19675509E-3,.1279E-4,0
KUIPER-00084,2025-151Q,2026-06-08T23:41:58.087968,14.79930152,.0000436,51.9011,261.8646,93.8356,266.2656,0,U,64830,999,4875,.20661E-3,.1354E-4,0
KUIPER-00085,2025-151R,2026-06-08T23:20:33.350208,14.79927577,.0000754,51.9009,244.5025,97.5050,262.5998,0,U,64831,999,4899,.73449E-4,.339E-5,0
KUIPER-00086,2025-151S,2026-06-08T13:21:32.279904,14.79929033,.00004697,51.9019,256.2952,106.0680,254.0334,0,U,64832,999,4879,-.7159704E-4,-.767E-5,0
KUIPER-00087,2025-151T,2026-06-08T12:11:28.770432,14.79935205,.0000544,51.8988,238.9782,98.3090,261.7934,0,U,64833,999,4902,.31698454E-3,.2196E-4,0
KUIPER-00089,2025-151U,2026-06-08T12:03:43.674912,14.79927915,.00006294,51.8997,244.0213,91.3166,268.7869,0,U,64834,999,4896,.13581709E-3,.814E-5,0
KUIPER-00090,2025-151V,2026-06-08T12:15:22.173984,14.79928845,.00005238,51.8978,236.4970,87.6639,272.4383,0,U,64835,999,4906,.15656327E-3,.973E-5,0
KUIPER-00091,2025-151W,2026-06-08T12:07:36.516864,14.79925652,.00004862,51.9004,241.5228,90.5572,269.5446,0,U,64836,999,4899,.15437641E-3,.956E-5,0
KUIPER-00092,2025-151X,2026-06-09T02:31:09.134112,14.79929734,.0000606,51.9002,246.3634,88.1306,271.9726,0,U,64837,999,5019,.13887E-3,.838E-5,0
KUIPER-00093,2025-151Y,2026-06-08T23:12:46.506816,14.79927544,.0000653,51.8987,249.4483,98.8757,261.2279,0,U,64838,999,4892,.10402E-3,.572E-5,0
KUIPER-00094,2025-151Z,2026-06-09T04:00:03.000096,14.81139024,.0000964,51.9019,203.6501,81.0123,359.4579,0,U,64839,999,580,-.24293E-2,-.1923E-3,0
LEMUR-2-HUBBLE-5,2025-135BT,2026-06-09T01:17:50.252640,14.94109922,.0005716,97.7710,274.6798,21.0280,339.1173,0,U,64840,999,5269,.16155E-3,.167E-4,0
LEMUR-2-KARENDARRELL,2025-135BU,2026-06-09T01:07:20.807040,14.99992158,.0009158,97.7666,276.2701,233.8259,126.2118,0,U,64841,999,5279,.52585E-3,.6485E-4,0
STARLINK-34723,2025-152A,2026-06-09T01:44:51.834624,15.05671532,.0001612,97.3879,14.7689,54.7365,305.4013,0,U,64842,999,4916,.15681E-3,.2207E-4,0
STARLINK-34725,2025-152B,2026-06-09T04:32:20.881248,15.05656998,.0002804,97.3845,14.9237,87.6072,272.5477,0,U,64843,999,4918,.15093E-3,.2121E-4,0
STARLINK-34709,2025-152C,2026-06-09T04:36:21.320352,15.05591426,.0002743,97.3861,14.9167,72.5083,287.6444,0,U,64844,999,4918,-.19632E-2,-.28229E-3,0
STARLINK-34706,2025-152D,2026-06-09T01:40:52.483296,15.05662352,.0001816,97.3868,14.7755,74.8077,285.3351,0,U,64845,999,4916,.27003E-3,.3842E-4,0
STARLINK-34736,2025-152E,2026-06-09T02:24:45.247680,15.05648546,.000288,97.3890,14.8803,92.4000,267.7557,0,U,64846,999,4917,-.60028E-4,-.924E-5,0
STARLINK-34746,2025-152F,2026-06-09T04:08:25.524096,15.05660117,.0002934,97.3850,14.9422,91.7370,268.4193,0,U,64847,999,4918,.28988E-3,.4129E-4,0
STARLINK-34748,2025-152G,2026-06-09T02:12:47.132352,15.05659095,.0002181,97.3880,14.8975,134.7521,225.3884,0,U,64848,999,4917,.28933E-3,.412E-4,0
STARLINK-34756,2025-152H,2026-06-09T04:12:23.958720,15.05651581,.0001768,97.3862,14.9564,97.9356,262.2072,0,U,64849,999,4918,-.42559E-3,-.6193E-4,0
STARLINK-34757,2025-152J,2026-06-09T04:24:22.164768,15.05663544,.0002403,97.3835,14.9260,89.6383,270.5120,0,U,64850,999,4918,.34909E-3,.4985E-4,0
STARLINK-34722,2025-152K,2026-06-09T03:04:37.236864,15.05656298,.0002665,97.3865,14.8497,81.9331,278.2199,0,U,64851,999,4917,.17944E-3,.2533E-4,0
STARLINK-34564,2025-152L,2026-06-09T04:16:23.870784,15.05658797,.0002799,97.3849,14.9348,92.5163,267.6385,0,U,64852,999,4918,.20652E-3,.2924E-4,0
