KUIPER-00076            
1 64823U 25151H   26159.52825845  .00001263  00000+0  19462-3 0  9995
2 64823  51.9006 251.4080 0000412 100.2909 259.8100 14.79927418 48867
KUIPER-00077            
1 64824U 25151J   26159.52282593  .00004095  00000+0  56544-3 0  9991
2 64824  51.9008 256.4474 0000505 102.2487 257.8532 14.79962902 48794
KUIPER-00078            
1 64825U 25151K   26160.09954748  .00005754  00000+0  78282-3 0  9990
2 64825  51.9018 251.3745 0000908 102.4207 257.6857 14.79953621 48910
KUIPER-00079            
1 64826U 25151L   26159.99287279  .00002162  00000+0  31250-3 0  9990
2 64826  51.8988 256.8153 0000531  95.7217 264.3806 14.79932119 50029
KUIPER-00080            
1 64827U 25151M   26159.55393039  .00001316  00000+0  20162-3 0  9995
2 64827  51.8998 258.7661 0000585 104.7948 255.3080 14.79923453 48760
KUIPER-00082            
1 64828U 25151N   26159.53363705  .00002049  00000+0  29773-3 0  9992
2 64828  51.8999 246.4011 0000593 105.7175 254.3853 14.79925582 48938
KUIPER-00083            
1 64829U 25151P   26159.52556006  .00001279  00000+0  19676-3 0  9995
2 64829  51.9014 253.9226 0000557 106.4031 253.6993 14.79933111 50014
KUIPER-00084            
1 64830U 25151Q   26159.98747787  .00001354  00000+0  20661-3 0  9995
2 64830  51.9011 261.8646 0000436  93.8356 266.2656 14.79930152 48758
KUIPER-00085            
1 64831U 25151R   26159.97260822  .00000339  00000+0  73449-4 0  9990
2 64831  51.9009 244.5025 0000754  97.5050 262.5998 14.79927577 48991
KUIPER-00086            
1 64832U 25151S   26159.55662361 -.00000767  00000+0 -71597-4 0  9998
2 64832  51.9019 256.2952 0000469 106.0680 254.0334 14.79929033 48797
KUIPER-00087            
1 64833U 25151T   26159.50797188  .00002196  00000+0  31698-3 0  9993
2 64833  51.8988 238.9782 0000544  98.3090 261.7934 14.79935205 49028
KUIPER-00089            
1 64834U 25151U   26159.50258883  .00000814  00000+0  13582-3 0  9995
2 64834  51.8997 244.0213 0000629  91.3166 268.7869 14.79927915 48962
KUIPER-00090            
1 64835U 25151V   26159.51067331  .00000973  00000+0  15656-3 0  9993
2 64835  51.8978 236.4970 0000523  87.6639 272.4383 14.79928845 49061
KUIPER-00091            
1 64836U 25151W   26159.50528376  .00000956  00000+0  15438-3 0  9993
2 64836  51.9004 241.5228 0000486  90.5572 269.5446 14.79925652 48994
KUIPER-00092            
1 64837U 25151X   26160.10496683  .00000838  00000+0  13887-3 0  9992
2 64837  51.9002 246.3634 0000606  88.1306 271.9726 14.79929734 50197
KUIPER-00093            
1 64838U 25151Y   26159.96720494  .00000572  00000+0  10402-3 0  9990
2 64838  51.8987 249.4483 0000653  98.8757 261.2279 14.79927544 48925
KUIPER-00094            
1 64839U 25151Z   26160.16670139 -.00019230  00000+0 -24293-2 0  9990
2 64839  51.9019 203.6501 0000964  81.0123 359.4579 14.81139024  5806
LEMUR-2-HUBBLE-5        
1 64840U 25135BT  26160.05405385  .00001670  00000+0  16155-3 0  9997
2 64840  97.7710 274.6798 0005716  21.0280 339.1173 14.94109922 52690
LEMUR-2-KARENDARRELL    
1 64841U 25135BU  26160.04676860  .00006485  00000+0  52585-3 0  9991
2 64841  97.7666 276.2701 0009158 233.8259 126.2118 14.99992158 52797
STARLINK-34723          
1 64842U 25152A   26160.07282216  .00002207  00000+0  15681-3 0  9996
2 64842  97.3879  14.7689 0001612  54.7365 305.4013 15.05671532 49165
STARLINK-34725          
1 64843U 25152B   26160.18913057  .00002121  00000+0  15093-3 0  9995
2 64843  97.3845  14.9237 0002804  87.6072 272.5477 15.05656998 49183
STARLINK-34709          
1 64844U 25152C   26160.19191343 -.00028229  00000+0 -19632-2 0  9994
2 64844  97.3861  14.9167 0002743  72.5083 287.6444 15.05591426 49186
STARLINK-34706          
1 64845U 25152D   26160.07005189  .00003842  00000+0  27003-3 0  9998
2 64845  97.3868  14.7755 0001816  74.8077 285.3351 15.05662352 49160
STARLINK-34736          
1 64846U 25152E   26160.10052370 -.00000924  00000+0 -60028-4 0  9992
2 64846  97.3890  14.8803 0002880  92.4000 267.7557 15.05648546 49177
STARLINK-34746          
1 64847U 25152F   26160.17251764  .00004129  00000+0  28988-3 0  9995
2 64847  97.3850  14.9422 0002934  91.7370 268.4193 15.05660117 49187
STARLINK-34748          
1 64848U 25152G   26160.09221218  .00004120  00000+0  28933-3 0  9999
2 64848  97.3880  14.8975 0002181 134.7521 225.3884 15.05659095 49174
STARLINK-34756          
1 64849U 25152H   26160.17527730 -.00006193  00000+0 -42559-3 0  9991
2 64849  97.3862  14.9564 0001768  97.9356 262.2072 15.05651581 49188
STARLINK-34757          
1 64850U 25152J   26160.18358987  .00004985  00000+0  34909-3 0  9995
2 64850  97.3835  14.9260 0002403  89.6383 270.5120 15.05663544 49186
STARLINK-34722          
1 64851U 25152K   26160.12820876  .00002533  00000+0  17944-3 0  9998
2 64851  97.3865  14.8497 0002665  81.9331 278.2199 15.05656298 49177
STARLINK-34564          
1 64852U 25152L   26160.17805406  .00002924  00000+0  20652-3 0  9990
2 64852  97.3849  14.9348 0002799  92.5163 267.6385 15.05658797 49181
